$$SOE
2461302.500000000, A.D. 2026-Sep-19 00:00:00.0000, 3.170697341536484E+06, 6.857193111708989E+08, 1.286380807995675E+08,
2461309.500000000, A.D. 2026-Sep-26 00:00:00.0000, -4.280040089266716E+06, 6.854570293156106E+08, 1.299670582318404E+08,
2461316.500000000, A.D. 2026-Oct-03 00:00:00.0000, -1.173029010244463E+07, 6.850966855843737E+08, 1.312774203529528E+08,
2461323.500000000, A.D. 2026-Oct-10 00:00:00.0000, -1.917898776349393E+07, 6.846383182425225E+08, 1.325689775946430E+08,
2461330.500000000, A.D. 2026-Oct-17 00:00:00.0000, -2.662506755717002E+07, 6.840819720324670E+08, 1.338415415803147E+08,
2461337.500000000, A.D. 2026-Oct-24 00:00:00.0000, -3.406746336050197E+07, 6.834276981585920E+08, 1.350949251083892E+08,
2461344.500000000, A.D. 2026-Oct-31 00:00:00.0000, -4.150510832786660E+07, 6.826755541132432E+08, 1.363289421144038E+08,
2461351.500000000, A.D. 2026-Nov-07 00:00:00.0000, -4.893693434912783E+07, 6.818256034180086E+08, 1.375434075870249E+08,
2461358.500000000, A.D. 2026-Nov-14 00:00:00.0000, -5.636187087997529E+07, 6.808779161679485E+08, 1.387381374923613E+08,
2461365.500000000, A.D. 2026-Nov-21 00:00:00.0000, -6.377884495597978E+07, 6.798325710608854E+08, 1.399129489287604E+08,
2461372.500000000, A.D. 2026-Nov-28 00:00:00.0000, -7.118678338809396E+07, 6.786896559032999E+08, 1.410676603579245E+08,
2461379.500000000, A.D. 2026-Dec-05 00:00:00.0000, -7.858461352024429E+07, 6.774492659359643E+08, 1.422020915268832E+08,
2461386.500000000, A.D. 2026-Dec-12 00:00:00.0000, -8.597126238430381E+07, 6.761115030904444E+08, 1.433160633202612E+08,
2461393.500000000, A.D. 2026-Dec-19 00:00:00.0000, -9.334565613961355E+07, 6.746764761828904E+08, 1.444093977166817E+08,
2461400.500000000, A.D. 2026-Dec-26 00:00:00.0000, -1.007067199395721E+08, 6.731443011767706E+08, 1.454819177915594E+08,
2461407.500000000, A.D. 2027-Jan-02 00:00:00.0000, -1.080533779499638E+08, 6.715151013234267E+08, 1.465334477255401E+08,
2461414.500000000, A.D. 2027-Jan-09 00:00:00.0000, -1.153845534029176E+08, 6.697890072005510E+08, 1.475638128096955E+08,
2461421.500000000, A.D. 2027-Jan-16 00:00:00.0000, -1.226991686523372E+08, 6.679661566573910E+08, 1.485728394451064E+08,
2461428.500000000, A.D. 2027-Jan-23 00:00:00.0000, -1.299961451862701E+08, 6.660466946270223E+08, 1.495603551294655E+08,
2461435.500000000, A.D. 2027-Jan-30 00:00:00.0000, -1.372744034101231E+08, 6.640307727578444E+08, 1.505261884095919E+08,
2461442.500000000, A.D. 2027-Feb-06 00:00:00.0000, -1.445328617777047E+08, 6.619185492042831E+08, 1.514701687886479E+08,
2461449.500000000, A.D. 2027-Feb-13 00:00:00.0000, -1.517704357320334E+08, 6.597101897965128E+08, 1.523921267299149E+08,
2461456.500000000, A.D. 2027-Feb-20 00:00:00.0000, -1.589860388209167E+08, 6.574058697983110E+08, 1.532918939091576E+08,
2461463.500000000, A.D. 2027-Feb-27 00:00:00.0000, -1.661785845921171E+08, 6.550057730388987E+08, 1.541693033245725E+08,
2461470.500000000, A.D. 2027-Mar-06 00:00:00.0000, -1.733469862509652E+08, 6.525100903411006E+08, 1.550241891444110E+08,
2461477.500000000, A.D. 2027-Mar-13 00:00:00.0000, -1.804901556811690E+08, 6.499190192957079E+08, 1.558563866064956E+08,
2461484.500000000, A.D. 2027-Mar-20 00:00:00.0000, -1.876070029582439E+08, 6.472327645475521E+08, 1.566657320048505E+08,
2461491.500000000, A.D. 2027-Mar-27 00:00:00.0000, -1.946964361535457E+08, 6.444515380442542E+08, 1.574520626998816E+08,
2461498.500000000, A.D. 2027-Apr-03 00:00:00.0000, -2.017573612260643E+08, 6.415755591998369E+08, 1.582152171294630E+08,
2461505.500000000, A.D. 2027-Apr-10 00:00:00.0000, -2.087886819408118E+08, 6.386050549962480E+08, 1.589550348171277E+08,
2461512.500000000, A.D. 2027-Apr-17 00:00:00.0000, -2.157892997918026E+08, 6.355402600084869E+08, 1.596713563741266E+08,
2461519.500000000, A.D. 2027-Apr-24 00:00:00.0000, -2.227581138504918E+08, 6.323814162911713E+08, 1.603640234829920E+08,
2461526.500000000, A.D. 2027-May-01 00:00:00.0000, -2.296940202401479E+08, 6.291287731543546E+08, 1.610328788374004E+08,
2461533.500000000, A.D. 2027-May-08 00:00:00.0000, -2.365959109289488E+08, 6.257825875770544E+08, 1.616777660713605E+08,
2461540.500000000, A.D. 2027-May-15 00:00:00.0000, -2.434626733388462E+08, 6.223431262122389E+08, 1.622985298930671E+08,
2461547.500000000, A.D. 2027-May-22 00:00:00.0000, -2.502931923338588E+08, 6.188106663918130E+08, 1.628950163550975E+08,
2461554.500000000, A.D. 2027-May-29 00:00:00.0000, -2.570863512317993E+08, 6.151854946628780E+08, 1.634670728330746E+08,
2461561.500000000, A.D. 2027-Jun-05 00:00:00.0000, -2.638410309550901E+08, 6.114679059869863E+08, 1.640145478877446E+08,
2461568.500000000, A.D. 2027-Jun-12 00:00:00.0000, -2.705561093284405E+08, 6.076582040346560E+08, 1.645372912301762E+08,
2461575.500000000, A.D. 2027-Jun-19 00:00:00.0000, -2.772304608543849E+08, 6.037567016403279E+08, 1.650351537442249E+08,
2461582.500000000, A.D. 2027-Jun-26 00:00:00.0000, -2.838629566873081E+08, 5.997637211564773E+08, 1.655079875194817E+08,
2461589.500000000, A.D. 2027-Jul-03 00:00:00.0000, -2.904524646739324E+08, 5.956795947152481E+08, 1.659556458835245E+08,
2461596.500000000, A.D. 2027-Jul-10 00:00:00.0000, -2.969978494235029E+08, 5.915046644064436E+08, 1.663779834310886E+08,
2461603.500000000, A.D. 2027-Jul-17 00:00:00.0000, -3.034979723713369E+08, 5.872392823331079E+08, 1.667748560439307E+08,
2461610.500000000, A.D. 2027-Jul-24 00:00:00.0000, -3.099516916792724E+08, 5.828838104819008E+08, 1.671461208821289E+08,
2461617.500000000, A.D. 2027-Jul-31 00:00:00.0000, -3.163578615615677E+08, 5.784386206436768E+08, 1.674916363284968E+08,
2461624.500000000, A.D. 2027-Aug-07 00:00:00.0000, -3.227153312371162E+08, 5.739040955358903E+08, 1.678112619987840E+08,
2461631.500000000, A.D. 2027-Aug-14 00:00:00.0000, -3.290229458092862E+08, 5.692806308736396E+08, 1.681048590081600E+08,
2461638.500000000, A.D. 2027-Aug-21 00:00:00.0000, -3.352795484550595E+08, 5.645686350250132E+08, 1.683722901622937E+08,
2461645.500000000, A.D. 2027-Aug-28 00:00:00.0000, -3.414839804926659E+08, 5.597685274534264E+08, 1.686134198565498E+08,
2461652.500000000, A.D. 2027-Sep-04 00:00:00.0000, -3.476350805096329E+08, 5.548807384494529E+08, 1.688281139962379E+08,
2461659.500000000, A.D. 2027-Sep-11 00:00:00.0000, -3.537316839469306E+08, 5.499057094914805E+08, 1.690162400119312E+08,
2461666.500000000, A.D. 2027-Sep-18 00:00:00.0000, -3.597726230060611E+08, 5.448438935854437E+08, 1.691776669043755E+08,
2461673.500000000, A.D. 2027-Sep-25 00:00:00.0000, -3.657567266502587E+08, 5.396957555063779E+08, 1.693122652914339E+08,
2461680.500000000, A.D. 2027-Oct-02 00:00:00.0000, -3.716828206247948E+08, 5.344617719697492E+08, 1.694199074521886E+08,
2461687.500000000, A.D. 2027-Oct-09 00:00:00.0000, -3.775497274739609E+08, 5.291424317284803E+08, 1.695004673655249E+08,
2461694.500000000, A.D. 2027-Oct-16 00:00:00.0000, -3.833562664915739E+08, 5.237382355411917E+08, 1.695538207326883E+08,
2461701.500000000, A.D. 2027-Oct-23 00:00:00.0000, -3.891012533451390E+08, 5.182496960063093E+08, 1.695798449593243E+08,
2461708.500000000, A.D. 2027-Oct-30 00:00:00.0000, -3.947834989990558E+08, 5.126773378726344E+08, 1.695784191123809E+08,
2461715.500000000, A.D. 2027-Nov-06 00:00:00.0000, -4.004018091006048E+08, 5.070216999549133E+08, 1.695494240507850E+08,
2461722.500000000, A.D. 2027-Nov-13 00:00:00.0000, -4.059549858143152E+08, 5.012833365787897E+08, 1.694927427423917E+08,
2461729.500000000, A.D. 2027-Nov-20 00:00:00.0000, -4.114418292025573E+08, 4.954628163693341E+08, 1.694082603223063E+08,
2461736.500000000, A.D. 2027-Nov-27 00:00:00.0000, -4.168611365349742E+08, 4.895607213472276E+08, 1.692958639864069E+08,
2461743.500000000, A.D. 2027-Dec-04 00:00:00.0000, -4.222117015509611E+08, 4.835776472467417E+08, 1.691554429805725E+08,
2461750.500000000, A.D. 2027-Dec-11 00:00:00.0000, -4.274923142260873E+08, 4.775142040919549E+08, 1.689868886575437E+08,
2461757.500000000, A.D. 2027-Dec-18 00:00:00.0000, -4.327017607676347E+08, 4.713710166922858E+08, 1.687900945486119E+08,
2461764.500000000, A.D. 2027-Dec-25 00:00:00.0000, -4.378388236874765E+08, 4.651487250552764E+08, 1.685649564361438E+08,
2461771.500000000, A.D. 2028-Jan-01 00:00:00.0000, -4.429022819111391E+08, 4.588479847313187E+08, 1.683113724244968E+08,
$$EOE